1 41862U 16069D   19343.58216930  .00000109  00000-0  00000+0 0  9996
2 41862  54.6217 167.1420 0000534 317.8934  42.1525  1.70473473 19045
1 41862U 16069D   19343.58216930  .00000109  00000-0  00000-0 0  9997
2 41862  54.6217 167.1420 0000534 317.8934  42.1525  1.70473473 19045
1 41862U 16069D   19345.92848427  .00000106  00000-0  00000+0 0  9995
2 41862  54.6204 167.0768 0000542 317.7553  42.2763  1.70473373 19088
1 41862U 16069D   19345.92848427  .00000106  00000-0  00000-0 0  9996
2 41862  54.6204 167.0768 0000542 317.7553  42.2763  1.70473373 19088
1 41862U 16069D   19348.27479113  .00000096  00000-0  00000-0 0  9997
2 41862  54.6212 167.0115 0000526 318.0848  41.9293  1.70473376 19128
1 41862U 16069D   19348.27479158  .00000096  00000-0  00000+0 0  9995
2 41862  54.6212 167.0115 0000527 318.0128  42.0013  1.70473370 19126
1 41862U 16069D   19350.62111514  .00000089  00000-0  00000+0 0  9998
2 41862  54.6225 166.9463 0000508 316.9781  43.0276  1.70473333 19160
1 41862U 16069D   19352.96745571  .00000092  00000-0  00000-0 0  9998
2 41862  54.6230 166.8811 0000512 313.3720  46.6360  1.70473338 19204
1 41862U 16069D   19352.96745622  .00000092  00000-0  00000+0 0  9994
2 41862  54.6228 166.8811 0000511 314.1017  45.9064  1.70473328 19200
1 41862U 16069D   19355.90037488  .00000086  00000-0  00000+0 0  9998
2 41862  54.6236 166.7995 0000508 310.3378  49.6684  1.70473349 19252
1 41862U 16069D   19358.24668417  .00000065  00000-0  00000+0 0  9997
2 41862  54.6241 166.7343 0000503 305.6654  54.3254  1.70473462 19290
1 41862U 16069D   19359.41983856  .00000055  00000-0  00000-0 0  9994
2 41862  54.6245 166.7017 0000498 302.1918  57.7894  1.70473449 19315
1 41862U 16069D   19360.59299110  .00000048  00000-0  00000-0 0  9990
2 41862  54.6246 166.6690 0000507 300.6230  59.3500  1.70473541 19330
1 41862U 16069D   19360.59299131  .00000048  00000-0  00000+0 0  9992
2 41862  54.6246 166.6691 0000514 297.0252  62.9476  1.70473520 19331
1 41862U 16069D   19362.35273272  .00000048  00000-0  00000-0 0  9997
2 41862  54.6251 166.6202 0000531 296.6282  63.3375  1.70473565 19367
1 41862U 16069D   19364.69906769  .00000059  00000-0  00000-0 0  9992
2 41862  54.6259 166.5550 0000545 295.4644  64.5025  1.70473678 19409
1 41862U 16069D   19364.69906778  .00000059  00000-0  00000-0 0  9992
2 41862  54.6259 166.5550 0000546 294.5375  65.4294  1.70473689 19401
